NORAD_CAT_ID,OBJECT_NAME,OBJECT_TYPE,EPOCH,MEAN_MOTION,ECCENTRICITY,INCLINATION,RA_OF_ASC_NODE,ARG_OF_PERICENTER,MEAN_ANOMALY,BSTAR,MEAN_MOTION_DOT,MEAN_MOTION_DDOT,TLE_LINE0,TLE_LINE1,TLE_LINE2,SEMIMAJOR_AXIS,PERIOD,APOGEE,PERIGEE,DECAYED
54090.0,STARLINK-5177,PAYLOAD,2023-08-29 11:46:15,15.0883428,0.0001435,53.2167,158.431,81.2771,278.8383,-2.8507e-05,-7.42e-06,0.0,0 STARLINK-5177,1 54090U 22136AR  23241.49046271 -.00000742  00000-0 -28507-4 0  9998,2 54090  53.2167 158.4310 0001435  81.2771 278.8383 15.08834280 48083,6917.898,95.438,540.756,538.77,0.0
54090.0,STARLINK-5177,PAYLOAD,2023-08-30 11:37:02,15.08842437,0.0001408,53.2161,153.9717,80.7246,279.3906,0.00010806,1.432e-05,0.0,0 STARLINK-5177,1 54090U 22136AR  23242.48406226  .00001432  00000-0  10806-3 0  9995,2 54090  53.2161 153.9717 0001408  80.7246 279.3906 15.08842437 48236,6917.873,95.437,540.712,538.764,0.0
54090.0,STARLINK-5177,PAYLOAD,2023-08-31 00:20:07,15.08845905,0.0001347,53.216,151.5919,88.4141,271.7006,0.00022691,3.326e-05,0.0,0 STARLINK-5177,1 54090U 22136AR  23243.01398106  .00003326  00000-0  22691-3 0  9991,2 54090  53.2160 151.5919 0001347  88.4141 271.7006 15.08845905 47840,6917.862,95.437,540.659,538.796,0.0
54090.0,STARLINK-5177,PAYLOAD,2023-09-02 00:01:41,15.08848272,0.0001019,53.2143,142.6706,87.8832,272.2277,0.00016112,2.278e-05,0.0,0 STARLINK-5177,1 54090U 22136AR  23245.00117881  .00002278  00000-0  16112-3 0  9997,2 54090  53.2143 142.6706 0001019  87.8832 272.2277 15.08848272 48614,6917.855,95.437,540.425,539.015,0.0
54090.0,STARLINK-5177,PAYLOAD,2023-09-02 03:12:27,15.08852805,0.0001418,53.2158,142.077,93.1864,266.929,0.00020008,2.899e-05,0.0,0 STARLINK-5177,1 54090U 22136AR  23245.13365546  .00002899  00000-0  20008-3 0  9992,2 54090  53.2158 142.0770 0001418  93.1864 266.9290 15.08852805 48165,6917.841,95.437,540.687,538.725,0.0
54090.0,STARLINK-5177,PAYLOAD,2023-09-02 23:52:29,15.08841272,0.0001327,53.2154,138.2116,86.8203,273.2941,-1.6976e-05,-5.58e-06,0.0,0 STARLINK-5177,1 54090U 22136AR  23245.99478262 -.00000558  00000-0 -16976-4 0  9998,2 54090  53.2154 138.2116 0001327  86.8203 273.2941 15.08841272 48763,6917.877,95.437,540.66,538.823,0.0
54090.0,STARLINK-5177,PAYLOAD,2023-09-03 09:24:47,15.08845137,0.0001339,53.2155,136.4275,86.9967,273.1179,4.9325e-05,4.97e-06,0.0,0 STARLINK-5177,1 54090U 22136AR  23246.39222050  .00000497  00000-0  49325-4 0  9999,2 54090  53.2155 136.4275 0001339  86.9967 273.1179 15.08845137 48352,6917.865,95.437,540.656,538.803,0.0
54090.0,STARLINK-5177,PAYLOAD,2023-09-03 15:46:19,15.08852928,0.0001336,53.2152,135.2369,82.751,277.3634,0.00016748,2.379e-05,0.0,0 STARLINK-5177,1 54090U 22136AR  23246.65717538  .00002379  00000-0  16748-3 0  9991,2 54090  53.2152 135.2369 0001336  82.7510 277.3634 15.08852928 48869,6917.841,95.437,540.63,538.782,0.0
54090.0,STARLINK-5177,PAYLOAD,2023-09-03 23:43:15,15.08864439,0.0001322,53.2153,133.7512,88.5108,271.6035,0.00044581,6.819e-05,0.0,0 STARLINK-5177,1 54090U 22136AR  23246.98836907  .00006819  00000-0  44581-3 0  9998,2 54090  53.2153 133.7512 0001322  88.5108 271.6035 15.08864439 48913,6917.806,95.436,540.585,538.756,0.0
54090.0,STARLINK-5177,PAYLOAD,2023-09-04 09:15:33,15.0885615,0.0001061,53.2155,131.9659,75.6348,284.4762,0.00035494,5.368e-05,0.0,0 STARLINK-5177,1 54090U 22136AR  23247.38580731  .00005368  00000-0  35494-3 0  9995,2 54090  53.2155 131.9659 0001061  75.6348 284.4762 15.08856150 48976,6917.831,95.437,540.43,538.962,0.0
54090.0,STARLINK-5177,PAYLOAD,2023-09-05 02:44:49,15.08829565,0.0001447,53.2152,128.696,81.0591,279.0565,-0.0001579,-2.799e-05,0.0,0 STARLINK-5177,1 54090U 22136AR  23248.11446072 -.00002799  00000-0 -15790-3 0  9990,2 54090  53.2152 128.6960 0001447  81.0591 279.0565 15.08829565 49084,6917.912,95.438,540.778,538.776,0.0
54090.0,STARLINK-5177,PAYLOAD,2023-09-06 01:00:13,15.08849006,0.0001285,53.2149,124.5322,79.9013,280.2124,0.0010148,0.00015903,0.0,0 STARLINK-5177,1 54090U 22136AR  23249.04182528  .00015903  00000-0  10148-2 0  9996,2 54090  53.2149 124.5322 0001285  79.9013 280.2124 15.08849006 49225,6917.853,95.437,540.607,538.829,0.0
54090.0,STARLINK-5177,PAYLOAD,2023-09-06 21:40:14,15.08847318,0.0001333,53.2148,120.6665,77.2322,282.8819,0.00050202,7.712e-05,0.0,0 STARLINK-5177,1 54090U 22136AR  23249.90294525  .00007712  00000-0  50202-3 0  9997,2 54090  53.2148 120.6665 0001333  77.2322 282.8819 15.08847318 48883,6917.858,95.437,540.645,538.801,0.0
54090.0,STARLINK-5177,PAYLOAD,2023-09-07 15:09:29,15.08843847,0.0001233,53.2139,117.396,80.0387,280.0744,0.0003466,5.233e-05,0.0,0 STARLINK-5177,1 54090U 22136AR  23250.63158589  .00005233  00000-0  34660-3 0  9994,2 54090  53.2139 117.3960 0001233  80.0387 280.0744 15.08843847 49461,6917.869,95.437,540.587,538.881,0.0
54090.0,STARLINK-5177,PAYLOAD,2023-09-07 23:06:24,15.08848784,0.000112,53.2146,115.9083,87.6231,272.4889,0.00032923,4.957e-05,0.0,0 STARLINK-5177,1 54090U 22136AR  23250.96278411  .00004957  00000-0  32923-3 0  9999,2 54090  53.2146 115.9083 0001120  87.6231 272.4889 15.08848784 49049,6917.854,95.437,540.493,538.944,0.0
54090.0,STARLINK-5177,PAYLOAD,2023-09-08 18:11:02,15.08840046,0.0001331,53.214,112.3385,99.9245,260.1897,9.0161e-05,1.147e-05,0.0,0 STARLINK-5177,1 54090U 22136AR  23251.75766796  .00001147  00000-0  90161-4 0  9992,2 54090  53.2140 112.3385 0001331  99.9245 260.1897 15.08840046 49635,6917.88,95.438,540.666,538.824,0.0
54090.0,STARLINK-5177,PAYLOAD,2023-09-08 21:21:48,15.08841255,0.0001247,53.2157,111.7466,82.977,277.1364,0.00010188,1.334e-05,0.0,0 STARLINK-5177,1 54090U 22136AR  23251.89014810  .00001334  00000-0  10188-3 0  9998,2 54090  53.2157 111.7466 0001247  82.9770 277.1364 15.08841255 49187,6917.877,95.437,540.604,538.879,0.0
54090.0,STARLINK-5177,PAYLOAD,2023-09-08 22:57:11,15.08841328,0.0001248,53.2155,111.449,82.9003,277.2131,9.7012e-05,1.256e-05,0.0,0 STARLINK-5177,1 54090U 22136AR  23251.95638790  .00001256  00000-0  97012-4 0  9999,2 54090  53.2155 111.4490 0001248  82.9003 277.2131 15.08841328 49194,6917.876,95.437,540.605,538.878,0.0
54090.0,STARLINK-5177,PAYLOAD,2023-09-09 22:47:58,15.08852242,0.0001267,53.216,106.9861,88.3461,271.7676,-0.00011413,-2.104e-05,0.0,0 STARLINK-5177,1 54090U 22136AR  23252.94998218 -.00002104  00000-0 -11413-3 0  9998,2 54090  53.2160 106.9861 0001267  88.3461 271.7676 15.08852242 49819,6917.843,95.437,540.584,538.831,0.0
54090.0,STARLINK-5177,PAYLOAD,2023-09-10 19:27:59,15.08848407,0.0001294,53.2167,103.1197,86.3846,273.7294,-9.0467e-06,-4.32e-06,0.0,0 STARLINK-5177,1 54090U 22136AR  23253.81110741 -.00000432  00000-0 -90467-5 0  9992,2 54090  53.2167 103.1197 0001294  86.3846 273.7294 15.08848407 49942,6917.855,95.437,540.615,538.825,0.0
54090.0,STARLINK-5177,PAYLOAD,2023-09-11 06:35:41,15.08841662,0.000127,53.216,101.0394,86.9774,273.1363,8.278e-05,1.03e-05,0.0,0 STARLINK-5177,1 54090U 22136AR  23254.27478902  .00001030  00000-0  82780-4 0  9990,2 54090  53.2160 101.0394 0001270  86.9774 273.1363 15.08841662 49544,6917.875,95.437,540.619,538.862,0.0
54090.0,STARLINK-5177,PAYLOAD,2023-09-11 17:43:24,15.08835838,0.0001267,53.2163,98.9577,88.1351,271.9786,-2.6917e-05,-7.16e-06,0.0,0 STARLINK-5177,1 54090U 22136AR  23254.73847254 -.00000716  00000-0 -26917-4 0  9993,2 54090  53.2163  98.9577 0001267  88.1351 271.9786 15.08835838 50089,6917.893,95.438,540.635,538.882,0.0
54090.0,STARLINK-5177,PAYLOAD,2023-09-12 12:48:02,15.08836973,0.0001226,53.217,95.3894,101.2279,258.8851,3.488e-05,2.67e-06,0.0,0 STARLINK-5177,1 54090U 22136AR  23255.53335749  .00000267  00000-0  34880-4 0  9990,2 54090  53.2170  95.3894 0001226 101.2279 258.8851 15.08836973 49739,6917.89,95.438,540.603,538.907,0.0
54090.0,STARLINK-5177,PAYLOAD,2023-09-12 20:44:57,15.08852403,0.0001326,53.2172,93.9025,99.9147,260.1995,-4.5755e-05,-1.016e-05,0.0,0 STARLINK-5177,1 54090U 22136AR  23255.86454949 -.00001016  00000-0 -45755-4 0  9998,2 54090  53.2172  93.9025 0001326  99.9147 260.1995 15.08852403 49785,6917.842,95.437,540.625,538.79,0.0
54090.0,STARLINK-5177,PAYLOAD,2023-09-13 06:17:15,15.08851523,0.0001255,53.2173,92.1175,87.7203,272.3933,0.00011492,1.542e-05,0.0,0 STARLINK-5177,1 54090U 22136AR  23256.26198701  .00001542  00000-0  11492-3 0  9996,2 54090  53.2173  92.1175 0001255  87.7203 272.3933 15.08851523 49848,6917.845,95.437,540.578,538.842,0.0
54090.0,STARLINK-5177,PAYLOAD,2023-09-13 17:24:57,15.08846522,0.0001298,53.2165,90.0359,86.1469,273.9672,0.00027275,4.056e-05,0.0,0 STARLINK-5177,1 54090U 22136AR  23256.72566952  .00004056  00000-0  27275-3 0  9993,2 54090  53.2165  90.0359 0001298  86.1469 273.9672 15.08846522 50385,6917.86,95.437,540.623,538.828,0.0
54090.0,STARLINK-5177,PAYLOAD,2023-09-13 20:35:43,15.08853491,0.0001258,53.2163,89.4416,84.655,275.4586,0.00021734,3.174e-05,0.0,0 STARLINK-5177,1 54090U 22136AR  23256.85814554  .00003174  00000-0  21734-3 0  9995,2 54090  53.2163  89.4416 0001258  84.6550 275.4586 15.08853491 49932,6917.839,95.437,540.574,538.834,0.0
54090.0,STARLINK-5177,PAYLOAD,2023-09-13 22:11:07,15.08844756,0.0001397,53.2165,89.1436,85.9489,274.1663,0.00061814,9.565e-05,0.0,0 STARLINK-5177,1 54090U 22136AR  23256.92439126  .00009565  00000-0  61814-3 0  9994,2 54090  53.2165  89.1436 0001397  85.9489 274.1663 15.08844756 49949,6917.866,95.437,540.697,538.764,0.0
54090.0,STARLINK-5177,PAYLOAD,2023-09-14 18:51:08,15.08835988,0.0001199,53.2165,85.2783,91.7095,268.4034,-4.1191e-05,-9.43e-06,0.0,0 STARLINK-5177,1 54090U 22136AR  23257.78551447 -.00000943  00000-0 -41191-4 0  9990,2 54090  53.2165  85.2783 0001199  91.7095 268.4034 15.08835988 50542,6917.893,95.438,540.587,538.928,0.0
54090.0,STARLINK-5177,PAYLOAD,2023-09-14 20:26:31,15.08835304,0.0001184,53.2155,84.9811,93.1313,266.9815,-4.5918e-05,-1.018e-05,0.0,0 STARLINK-5177,1 54090U 22136AR  23257.85175471 -.00001018  00000-0 -45918-4 0  9992,2 54090  53.2155  84.9811 0001184  93.1313 266.9815 15.08835304 50083,6917.895,95.438,540.579,538.941,0.0
